STARLINK-31071          
1 58602U 23200P   25283.97607310  .00016035  00000+0  59058-3 0  9995
2 58602  43.0025 134.1807 0001227 286.6361  73.4356 15.27600820102591
STARLINK-31080          
1 58603U 23200Q   25283.97468670  .00008123  00000+0  61134-3 0  9997
2 58603  43.0028 263.7312 0001169 273.1947  86.8762 15.02804287100886
STARLINK-31088          
1 58604U 23200R   25283.64015278  .00000362  00000+0  41860-4 0  9996
2 58604  43.0039 265.5075 0001302 278.6229  81.4466 15.02537774101020
STARLINK-31038          
1 58605U 23200S   25283.96588086  .00002270  00000+0  18306-3 0  9992
2 58605  43.0013 263.6617 0001200 267.7008  92.3697 15.02535895101079
STARLINK-31082          
1 58606U 23200T   25283.96921361  .00001262  00000+0  10846-3 0  9991
2 58606  43.0036 263.6903 0001193 271.4096  88.6610 15.02536407101076
STARLINK-31069          
1 58607U 23200U   25283.96255385  .00000257  00000+0  34122-4 0  9995
2 58607  43.0030 263.6372 0001107 273.1318  86.9398 15.02537086101070
STARLINK-31067          
1 58608U 23200V   25284.02570417  .00001137  00000+0  99267-4 0  9999
2 58608  43.0025 263.2497 0001180 272.6534  87.4173 15.02533354101086
STARLINK-31085          
1 58609U 23200W   25284.02238981 -.00001371  00000+0 -86466-4 0  9996
2 58609  43.0031 263.2281 0000970 274.2672  85.8059 15.02522114101089
STARLINK-31089          
1 58610U 23200X   25284.21193676  .00000631  00000+0  61809-4 0  9990
2 58610  43.0032 262.8696 0001041 267.1706  92.9017 15.02527000101101
STARLINK-31061          
1 58611U 23200Y   25284.01905955  .00009092  00000+0  68718-3 0  9995
2 58611  43.0027 263.2009 0001668 274.4284  85.6368 15.02539214101081
STARLINK-31054          
1 58619U 23203B   25284.17654721 -.00006313  00000+0 -21968-3 0  9996
2 58619  43.0020 191.6047 0001494 263.5125  96.5556 15.27636933100697
STARLINK-31134          
1 58621U 23203D   25284.13303130 -.00003446  00000+0 -11580-3 0  9993
2 58621  43.0018 192.1407 0000970 255.8066 104.2678 15.27569946100689
STARLINK-31133          
1 58622U 23203E   25284.10732117  .00003465  00000+0  13534-3 0  9992
2 58622  43.0009 191.9451 0001169 279.8489  80.2231 15.27588939100683
STARLINK-31068          
1 58623U 23203F   25284.16886123  .00004106  00000+0  15862-3 0  9995
2 58623  42.9969 191.5470 0000952 298.1461  61.9294 15.27585639100697
STARLINK-31129          
1 58624U 23203G   25284.03551519 -.00000277  00000+0 -53746-6 0  9993
2 58624  43.0008 192.2643 0001389 271.7963  88.2730 15.27579639100671
STARLINK-30774          
1 58625U 23203H   25284.03166400  .00001148  00000+0  51262-4 0  9990
2 58625  43.0011 192.2351 0001393 286.6695  73.4003 15.27572697100670
STARLINK-31086          
1 58626U 23203J   25284.00596112  .00007950  00000+0  29809-3 0  9993
2 58626  43.0032 192.0495 0001216 272.7426  87.3287 15.27583418100674
STARLINK-31065          
1 58627U 23203K   25284.14829750  .00007793  00000+0  29228-3 0  9996
2 58627  43.0027 191.4057 0001579 270.3033  89.7637 15.27594299100692
STARLINK-31092          
1 58628U 23203L   25284.15857969  .00007676  00000+0  28823-3 0  9991
2 58628  43.0016 191.4691 0001064 322.8950  37.1828 15.27574209100693
STARLINK-31091          
1 58629U 23203M   25284.09653116 -.00001049  00000+0 -30231-4 0  9990
2 58629  43.0010 195.3148 0002168 279.1754  80.8851 15.25934568100642
STARLINK-31084          
1 58630U 23203N   25284.15973051  .00004940  00000+0  19849-3 0  9994
2 58630  43.0006 194.9281 0001559 281.9714  78.0963 15.25921749100653
STARLINK-31064          
1 58631U 23203P   25284.08974991  .00003901  00000+0  15889-3 0  9997
2 58631  43.0018 195.2617 0001344 271.8649  88.2048 15.25912980101814
STARLINK-31081          
1 58632U 23203Q   25284.02203007  .00002424  00000+0  10246-3 0  9996
2 58632  43.0009 195.6090 0001327 260.9316  99.1385 15.25914798101864
STARLINK-31022          
1 58633U 23203R   25284.15747106  .00007020  00000+0  27808-3 0  9993
2 58633  42.9994 194.9110 0001118 268.0966  91.9757 15.25895306101887
STARLINK-31025          
1 58634U 23203S   25282.50688250 -.00000870  00000+0 -23392-4 0  9998
2 58634  43.0024 200.5110 0001234 269.5206  90.5504 15.25922213101670
STARLINK-31018          
1 58635U 23203T   25284.05735882  .00002289  00000+0  92679-4 0  9993
2 58635  43.0028 192.4399 0001400 266.9699  93.0992 15.27575397101909
STARLINK-31008          
1 58636U 23203U   25284.12530519 -.00000918  00000+0 -23792-4 0  9991
2 58636  43.0017 192.0898 0001572 283.8031  76.2646 15.27612230101914
STARLINK-31077          
1 58637U 23203V   25284.11888352  .00003325  00000+0  13024-3 0  9991
2 58637  43.0034 192.0380 0001345 292.5424  67.5285 15.27590656101910
STARLINK-31078          
1 58638U 23203W   25284.11504279  .00013327  00000+0  49381-3 0  9993
2 58638  43.0024 192.0067 0000192 176.4622 183.6231 15.27521861100687
STARLINK-31070          
1 58639U 23203X   25284.12917450  .00013037  00000+0  48216-3 0  9998
2 58639  43.0001 192.1160 0000830 281.0837  78.9921 15.27599502100687
STARLINK-31090          
1 58640U 23203Y   25284.10686833  .00000647  00000+0  33030-4 0  9998
2 58640  43.0027 184.1668 0000799 303.3190  56.7585 15.27581327100782
STARLINK-31113          
1 58668U 23211B   25284.12166519  .00006437  00000+0  24318-3 0  9994
2 58668  43.0008 209.6652 0001206 321.2321  38.8444 15.27586615 99592
STARLINK-31128          
1 58669U 23211C   25284.13836406  .00016069  00000+0  59140-3 0  9998
2 58669  42.9993 209.7826 0001100 277.1389  82.9337 15.27624748 99595
STARLINK-31083          
1 58670U 23211D   25284.11779587  .00014678  00000+0  54224-3 0  9996
2 58670  43.0022 209.6366 0000816 269.5255  90.5503 15.27555655 99590
STARLINK-30828          
1 58671U 23211E   25284.14864503  .00020346  00000+0  74626-3 0  9990
2 58671  42.9974 209.8573 0001564 271.7293  88.3379 15.27604652 99593
STARLINK-31104          
1 58672U 23211F   25283.78702225  .00000312  00000+0  20865-4 0  9990
2 58672  43.0068 211.4462 0001769 263.8341  96.2309 15.27576068100828
STARLINK-31131          
1 58673U 23211G   25284.05770231  .00011138  00000+0  41338-3 0  9999
2 58673  42.9986 199.5165 0001039 281.3957  78.6778 15.27603176100982
STARLINK-31124          
1 58674U 23211H   25283.92936151  .00026111  00000+0  95432-3 0  9991
2 58674  43.0019 210.8012 0001500 276.8457  83.2224 15.27604379 99562
STARLINK-31126          
1 58675U 23211J   25284.17547731  .00004162  00000+0  16061-3 0  9995
2 58675  42.9991 209.1933 0001333 218.7921 141.2835 15.27596036 99606
STARLINK-31066          
1 58676U 23211K   25284.15067685  .00001281  00000+0  10991-3 0  9994
2 58676  43.0040 327.2386 0001394 270.0629  90.0054 15.02534582 99493
STARLINK-31058          
1 58677U 23211L   25284.12807921  .00003918  00000+0  15178-3 0  9998
2 58677  43.0023 209.7125 0000837 279.2891  80.7866 15.27590322 99592
STARLINK-31125          
1 58678U 23211M   25284.08580544  .00006435  00000+0  24301-3 0  9998
2 58678  42.9988 210.2420 0001001 290.7255  69.3489 15.27601496100752
STARLINK-31110          
1 58679U 23211N   25284.06655365  .00034569  00000+0  12575-2 0  9999
2 58679  43.0005 210.1081 0001547 251.9603 108.1080 15.27640303 99585
STARLINK-31112          
1 58680U 23211P   25284.13964534  .00006858  00000+0  25837-3 0  9996
2 58680  43.0006 209.7932 0001277 272.3674  87.7032 15.27595901100778
STARLINK-31147          
1 58681U 23211Q   25283.95891049  .00008133  00000+0  30462-3 0  9994
2 58681  43.0004 211.0134 0001607 261.5023  98.5646 15.27593608 99569
STARLINK-31144          
1 58682U 23211R   25283.19725924 -.00007100  00000+0 -24877-3 0  9997
2 58682  43.0001 214.7558 0000653 288.8278  71.2503 15.27579094 99452
STARLINK-31095          
1 58683U 23211S   25284.16791654  .00001947  00000+0  80235-4 0  9991
2 58683  43.0022 210.0035 0000773 270.9303  89.1460 15.27579830100865
STARLINK-31107          
1 58684U 23211T   25284.17433383  .00003505  00000+0  13678-3 0  9993
2 58684  43.0013 210.0525 0000886 281.8442  78.2311 15.27588601 99597
STARLINK-31121          
1 58685U 23211U   25284.18188676  .00005077  00000+0  19379-3 0  9997
2 58685  43.0057 209.2420 0001026 274.9114  85.1620 15.27598520 99609
STARLINK-31137          
1 58686U 23211V   25284.15249806  .00008892  00000+0  33206-3 0  9991
2 58686  42.9986 209.8815 0001251 261.2427  98.8283 15.27597502 99592
STARLINK-31139          
1 58688U 23211X   25284.17352297  .00036744  00000+0  12910-2 0  9999
2 58688  42.9992 209.2123 0002410 204.8604 155.2132 15.28752487 99604
STARLINK-31106          
1 58689U 23211Y   25284.14479336  .00005213  00000+0  19889-3 0  9991
2 58689  42.9976 209.8277 0001459 297.8636  62.2068 15.27571202 99598
STARLINK-11072 [DTC]    
1 58705U 24002A   25284.17019780 -.00000566  00000+0  19331-6 0  9997
2 58705  53.1584 291.0980 0001279  94.8757 265.2407 15.69718935102958
STARLINK-11075 [DTC]    
1 58706U 24002B   25283.72941420  .00003587  00000+0  34441-4 0  9995
2 58706  53.1585 293.3298 0001322 109.7404 250.3757 15.69721175102886
STARLINK-11077 [DTC]    
1 58707U 24002C   25283.73432312  .00006734  00000+0  60377-4 0  9996
2 58707  53.1591 293.3441 0001750  81.4093 278.7123 15.69719934102880
STARLINK-11079 [DTC]    
1 58708U 24002D   25284.16529006 -.00000164  00000+0  35093-5 0  9992
2 58708  53.1578 291.0614 0001605 123.8345 236.2826 15.69712613102957
STARLINK-11076 [DTC]    
1 58709U 24002E   25283.33267022  .00001213  00000+0  14855-4 0  9995
2 58709  53.1582 295.1130 0001214  78.7638 281.3517 15.69731012102828
STARLINK-11078 [DTC]    
1 58710U 24002F   25284.02813906  .00003225  00000+0  31470-4 0  9999
2 58710  53.1590 291.6305 0001782  61.7151 298.4046 15.69715838102932
STARLINK-31031          
1 58711U 24002G   25284.05399029 -.00002350  00000+0 -67296-4 0  9993
2 58711  53.1619 205.1070 0001390  79.2004 280.9153 15.30180546 99109
